STARLINK-37927          
1 69556U 26135L   26185.04272823  .00319567  00000+0  15983-2 0  9996
2 69556  97.2822 213.0417 0001223 149.3991 210.7349 15.80958519  2925
STARLINK-37929          
1 69557U 26135M   26185.54828944  .00641096  00000+0  30617-2 0  9999
2 69557  97.2832 213.5784 0002437 327.9786  32.1334 15.81147201  3002
STARLINK-37954          
1 69558U 26135N   26185.54707306  .00653105  00000+0  31147-2 0  9991
2 69558  97.2837 213.5808 0001628 341.7800  18.3409 15.81145780  3006
STARLINK-37958          
1 69559U 26135P   26185.00003472  .00106489  00000+0  55099-3 0  9997
2 69559  97.2829 213.0090 0001422  88.1489  54.8962 15.80773563  4019
STARLINK-37950          
1 69560U 26135Q   26185.58335648 -.00164903  00000+0 -87172-3 0  9999
2 69560  97.2833 213.6256 0001615 108.9604 112.3477 15.80934063  4105
STARLINK-37952          
1 69561U 26135R   26185.54306513  .00520294  00000+0  25303-2 0  9999
2 69561  97.2825 213.5859 0000665  58.3151 301.8182 15.81055155  3007
STARLINK-37935          
1 69562U 26135S   26185.54229381  .00519856  00000+0  25250-2 0  9990
2 69562  97.2830 213.5875 0000889  21.5494 338.5812 15.81084957  3001
STARLINK-37936          
1 69563U 26135T   26185.58335648 -.00013989  00000+0 -72241-4 0  9991
2 69563  97.2834 213.6474 0001176 109.8566 163.7388 15.80867420  4103
STARLINK-37932          
1 69564U 26135U   26185.34502040  .00429416  00000+0  21208-2 0  9997
2 69564  97.2833 213.3963 0003766 105.3985 254.7699 15.80951213  2979
STARLINK-37916          
1 69565U 26135V   26185.53437332  .00624548  00000+0  29931-2 0  9994
2 69565  97.2825 213.5981 0001598  57.2446 302.8977 15.81111575  3000
STARLINK-37909          
1 69566U 26135W   26185.52805917  .00642088  00000+0  30681-2 0  9995
2 69566  97.2838 213.6070 0001335  31.8421 328.2928 15.81130129  3009
STARLINK-37934          
1 69567U 26135X   26185.53125291  .00637793  00000+0  30572-2 0  9993
2 69567  97.2830 213.6034 0000777 278.3803  81.7377 15.81069869  3004
STARLINK-37938          
1 69568U 26135Y   26185.52881841  .00486930  00000+0  23763-2 0  9992
2 69568  97.2843 213.6069 0001191  39.4334 320.7021 15.81066133  3006
STARLINK-37924          
1 69569U 26135Z   26185.52605953  .00501445  00000+0  24548-2 0  9992
2 69569  97.2835 213.6097 0001508  74.1589 285.9845 15.80961394  3007
SHIJIAN-31 (SJ-31)      
1 69570U 26136A   26185.14183113 -.00000149  00000+0  00000+0 0  9992
2 69570  63.4826 354.3324 6940726 171.7999 212.4167  1.92225607   411
GUOWANG OBJECT A        
1 69572U 26137A   26185.26388128 -.00000088  00000+0  46474-4 0  9993
2 69572  49.9994 187.4054 0012644 281.9824  77.9657 13.89813412  2390
GUOWANG OBJECT B        
1 69573U 26137B   26185.26096300 -.00000158  00000+0 -97862-5 0  9999
2 69573  50.0015 187.3886 0011844 281.1445  78.8122 13.89804927  2402
GUOWANG OBJECT C        
1 69574U 26137C   26185.04419256 -.00000162  00000+0 -12795-4 0  9991
2 69574  49.9957 188.2290 0011939 281.9173  78.0386 13.89815737  2376
GUOWANG OBJECT D        
1 69575U 26137D   26184.68359068 -.00000119  00000+0  21709-4 0  9991
2 69575  49.9946 189.6528 0011148 279.5557  80.4081 13.89829029  2328
GUOWANG OBJECT E        
1 69576U 26137E   26185.25783234 -.00000204  00000+0 -46855-4 0  9997
2 69576  50.0031 187.3789 0011247 284.2931  75.6718 13.89825933  2402
GUOWANG OBJECT F        
1 69577U 26137F   26185.40075392 -.00000199  00000+0 -43350-4 0  9994
2 69577  50.0022 186.8001 0010856 284.4815  75.4878 13.89810297  2426
GUOWANG OBJECT G        
1 69578U 26137G   26185.39982987 -.00000220  00000+0 -59967-4 0  9996
2 69578  49.9950 186.7771 0010805 284.5306  75.4394 13.89795218  2425
GUOWANG OBJECT H        
1 69579U 26137H   26176.48489301  .00000037  00000+0  14270-3 0  9990
2 69579  49.9967 222.2731 0010122 259.8752 100.1006 13.92076941  1185
GUOWANG OBJECT J        
1 69580U 26137J   26178.27848690  .00000022  00000+0  13174-3 0  9997
2 69580  49.9961 215.0979 0011832 257.3150 102.6427 13.91997107  1436
CENTISPACE-1 GROUP 05 O*
1 69582U 26138A   26185.58422961 -.00000327  00000+0 -88581-4 0  9996
2 69582  55.1393 216.9287 0010586 320.0418  39.9776 14.15472479  2480
CENTISPACE-1 GROUP 05 O*
1 69583U 26138B   26185.58198744 -.00000364  00000+0 -10678-3 0  9998
2 69583  55.1389 216.9152 0009559 320.1655  39.8617 14.15653459  2481
CENTISPACE-1 GROUP 05 O*
1 69584U 26138C   26185.58093736 -.00000376  00000+0 -11271-3 0  9997
2 69584  55.1396 216.9182 0009488 321.8148  38.2153 14.15737485  2489
CENTISPACE-1 GROUP 05 O*
1 69585U 26138D   26185.57884341 -.00000435  00000+0 -14239-3 0  9990
2 69585  55.1397 216.8983 0009033 320.7770  39.2549 14.15924331  2482
