OBJECT_NAME,OBJECT_ID,EPOCH,MEAN_MOTION,ECCENTRICITY,INCLINATION,RA_OF_ASC_NODE,ARG_OF_PERICENTER,MEAN_ANOMALY,EPHEMERIS_TYPE,CLASSIFICATION_TYPE,NORAD_CAT_ID,ELEMENT_SET_NO,REV_AT_EPOCH,BSTAR,MEAN_MOTION_DOT,MEAN_MOTION_DDOT
STARLINK-37927,2026-135L,2026-07-04T01:01:31.719072,15.80958519,.00012235,97.2822,213.0417,149.3991,210.7349,0,U,69556,999,292,.15983003E-2,.319567E-2,0
STARLINK-37929,2026-135M,2026-07-04T13:09:32.207616,15.81147201,.00024371,97.2832,213.5784,327.9786,32.1334,0,U,69557,999,300,.3061748E-2,.641096E-2,0
STARLINK-37954,2026-135N,2026-07-04T13:07:47.112384,15.81145780,.00016288,97.2837,213.5808,341.7800,18.3409,0,U,69558,999,300,.31146711E-2,.653105E-2,0
STARLINK-37958,2026-135P,2026-07-04T00:00:02.999808,15.80773563,.00014227,97.2829,213.0090,88.1489,54.8962,0,U,69559,999,401,.55098621E-3,.106489E-2,0
STARLINK-37950,2026-135Q,2026-07-04T14:00:01.999872,15.80934063,.00016152,97.2833,213.6256,108.9604,112.3477,0,U,69560,999,410,-.87172346E-3,-.164903E-2,0
STARLINK-37952,2026-135R,2026-07-04T13:02:00.827232,15.81055155,.0000665,97.2825,213.5859,58.3151,301.8182,0,U,69561,999,300,.25303358E-2,.520294E-2,0
STARLINK-37935,2026-135S,2026-07-04T13:00:54.185184,15.81084957,.00008899,97.2830,213.5875,21.5494,338.5812,0,U,69562,999,300,.25249846E-2,.519856E-2,0
STARLINK-37936,2026-135T,2026-07-04T14:00:01.999872,15.80867420,.00011762,97.2834,213.6474,109.8566,163.7388,0,U,69563,999,410,-.72240546E-4,-.13989E-3,0
STARLINK-37932,2026-135U,2026-07-04T08:16:49.762560,15.80951213,.00037663,97.2833,213.3963,105.3985,254.7699,0,U,69564,999,297,.21208161E-2,.429416E-2,0
STARLINK-37916,2026-135V,2026-07-04T12:49:29.854848,15.81111575,.00015987,97.2825,213.5981,57.2446,302.8977,0,U,69565,999,300,.29931096E-2,.624548E-2,0
STARLINK-37909,2026-135W,2026-07-04T12:40:24.312288,15.81130129,.00013356,97.2838,213.6070,31.8421,328.2928,0,U,69566,999,300,.30681467E-2,.642088E-2,0
STARLINK-37934,2026-135X,2026-07-04T12:45:00.251424,15.81069869,.00007773,97.2830,213.6034,278.3803,81.7377,0,U,69567,999,300,.30572478E-2,.637793E-2,0
STARLINK-37938,2026-135Y,2026-07-04T12:41:29.910624,15.81066133,.0001191,97.2843,213.6069,39.4334,320.7021,0,U,69568,999,300,.23763332E-2,.48693E-2,0
STARLINK-37924,2026-135Z,2026-07-04T12:37:31.543392,15.80961394,.00015087,97.2835,213.6097,74.1589,285.9845,0,U,69569,999,300,.24547633E-2,.501445E-2,0
SHIJIAN-31 (SJ-31),2026-136A,2026-07-04T03:24:14.209632,1.92225607,.69407261,63.4826,354.3324,171.7999,212.4167,0,U,69570,999,41,0,-.149E-5,0
GUOWANG OBJECT A,2026-137A,2026-07-04T06:19:59.342592,13.89813412,.00126449,49.9994,187.4054,281.9824,77.9657,0,U,69572,999,239,.46473611E-4,-.88E-6,0
GUOWANG OBJECT B,2026-137B,2026-07-04T06:15:47.203200,13.89804927,.00118447,50.0015,187.3886,281.1445,78.8122,0,U,69573,999,240,-.9786213E-5,-.158E-5,0
GUOWANG OBJECT C,2026-137C,2026-07-04T01:03:38.237184,13.89815737,.0011939,49.9957,188.2290,281.9173,78.0386,0,U,69574,999,237,-.1279541E-4,-.162E-5,0
GUOWANG OBJECT D,2026-137D,2026-07-03T16:24:22.234752,13.89829029,.00111482,49.9946,189.6528,279.5557,80.4081,0,U,69575,999,232,.21708546E-4,-.119E-5,0
GUOWANG OBJECT E,2026-137E,2026-07-04T06:11:16.714176,13.89825933,.00112472,50.0031,187.3789,284.2931,75.6718,0,U,69576,999,240,-.46854787E-4,-.204E-5,0
GUOWANG OBJECT F,2026-137F,2026-07-04T09:37:05.138688,13.89810297,.00108563,50.0022,186.8001,284.4815,75.4878,0,U,69577,999,242,-.43349658E-4,-.199E-5,0
GUOWANG OBJECT G,2026-137G,2026-07-04T09:35:45.300768,13.89795218,.00108054,49.9950,186.7771,284.5306,75.4394,0,U,69578,999,242,-.59967281E-4,-.22E-5,0
GUOWANG OBJECT H,2026-137H,2026-06-25T11:38:14.756064,13.92076941,.0010122,49.9967,222.2731,259.8752,100.1006,0,U,69579,999,118,.1427E-3,.37E-6,0
GUOWANG OBJECT J,2026-137J,2026-06-27T06:41:01.268160,13.91997107,.0011832,49.9961,215.0979,257.3150,102.6427,0,U,69580,999,143,.13174E-3,.22E-6,0
CENTISPACE-1 GROUP 05 OBJECT A,2026-138A,2026-07-04T14:01:17.438304,14.15472479,.00105868,55.1393,216.9287,320.0418,39.9776,0,U,69582,999,248,-.88580545E-4,-.327E-5,0
CENTISPACE-1 GROUP 05 OBJECT B,2026-138B,2026-07-04T13:58:03.714816,14.15653459,.00095595,55.1389,216.9152,320.1655,39.8617,0,U,69583,999,248,-.1067796E-3,-.364E-5,0
CENTISPACE-1 GROUP 05 OBJECT C,2026-138C,2026-07-04T13:56:32.987904,14.15737485,.00094883,55.1396,216.9182,321.8148,38.2153,0,U,69584,999,248,-.1127132E-3,-.376E-5,0
CENTISPACE-1 GROUP 05 OBJECT D,2026-138D,2026-07-04T13:53:32.070624,14.15924331,.00090334,55.1397,216.8983,320.7770,39.2549,0,U,69585,999,248,-.14238972E-3,-.435E-5,0
